0 CP4
1 31132U 07012Q   13281.47667774  .00000771  00000-0  17451-3 0  8820
2 31132 097.8707 276.6443 0084482 039.7234 086.0054 14.56629737344066
0 CP4
1 31132U 07012Q   13282.50584999  .00000774  00000-0  17521-3 0  8834
2 31132 097.8706 277.6164 0084395 036.5212 082.8303 14.56634272344218
0 CP4
1 31132U 07012Q   13283.81133251  .00000844  00000-0  19013-3 0  8847
2 31132 097.8706 278.8496 0084306 032.4683 088.5935 14.56637450344404
0 CP4
1 31132U 07012Q   13285.99856355  .00000875  00000-0  19671-3 0  8861
2 31132 097.8704 280.9156 0084134 025.6538 038.1757 14.56641060344721
0 CP4
1 31132U 07012Q   13287.98938503  .00001137  00000-0  25288-3 0  8872
2 31132 097.8704 282.7959 0083948 019.4479 037.8422 14.56646572345010
0 CP4
1 31132U 07012Q   13289.09519874  .00001154  00000-0  25651-3 0  8886
2 31132 097.8706 283.8403 0083864 015.9739 076.6617 14.56650189345178
0 CP4
1 31132U 07012Q   13290.48018537  .00001141  00000-0  25375-3 0  8891
2 31132 097.8708 285.1486 0083761 011.6241 139.4637 14.56653379345379
0 CP4
1 31132U 07012Q   13291.50387425  .00001109  00000-0  24678-3 0  8901
2 31132 097.8710 286.1154 0083692 008.4131 107.6465 14.56655357345521
0 CP4
1 31132U 07012Q   13292.81008280  .00001279  00000-0  28315-3 0  8916
2 31132 097.8713 287.3492 0083565 004.3419 117.3403 14.56657809345710
0 CP4
1 31132U 07012Q   13293.96002999  .00001258  00000-0  27879-3 0  8926
2 31132 097.8714 288.4355 0083488 000.7488 027.6230 14.56661425345878
0 CP4
1 31132U 07012Q   13294.99652010  .00001370  00000-0  30276-3 0  8936
2 31132 097.8714 289.4146 0083395 357.5036 062.9613 14.56663938346033
